GLOBALSTAR M001 [-]     
1 25162U 98008A   23283.41618185 -.00000065  00000+0  24155-3 0  9994
2 25162  52.0046 325.4089 0001696  43.0242 330.6191 12.38168269167545
GLOBALSTAR M004 [-]     
1 25163U 98008B   23283.34676598 -.00000038  00000+0  36237-3 0  9993
2 25163  51.9970 132.8540 0003358  18.8205 152.4413 12.63339794183948
GLOBALSTAR M002 [-]     
1 25164U 98008C   23283.42128008 -.00000037  00000+0  78214-3 0  9991
2 25164  52.0044 344.1168 0001694 100.0036 260.0975 11.61495709112581
GLOBALSTAR M003 [-]     
1 25165U 98008D   23283.48639079  .00000038  00000+0  13579-2 0  9995
2 25165  51.9754  73.8861 0008591 131.9165 269.7096 12.11943136158659
GLOBALSTAR M014 [-]     
1 25306U 98023A   23282.75923738 -.00000045  00000+0  61661-3 0  9991
2 25306  51.9826 281.9573 0000837 327.0254 203.9161 11.65460708119297
GLOBALSTAR M006 [-]     
1 25307U 98023B   23282.99718541 -.00000048  00000+0  57303-3 0  9993
2 25307  51.9943 310.8008 0003732  81.7539   7.5768 11.58154358145541
GLOBALSTAR M015 [-]     
1 25308U 98023C   23283.48891598  .00000020  00000+0  21241-2 0  9993
2 25308  51.9857  19.8341 0012864  63.9601  19.1705 11.48852540123688
GLOBALSTAR M008 [-]     
1 25309U 98023D   23282.88694656 -.00000082  00000+0  10982-3 0  9993
2 25309  51.9959 184.8016 0002429 333.6997 104.1029 12.36029379161630
